[{"OBJECT_NAME":"NINGXIA-1 7","OBJECT_ID":"2021-064B","EPOCH":"2026-03-09T23:03:16.134624","MEAN_MOTION":14.08535138,"ECCENTRICITY":0.00060368,"INCLINATION":45.0039,"RA_OF_ASC_NODE":315.6009,"ARG_OF_PERICENTER":124.1771,"MEAN_ANOMALY":235.9639,"EPHEMERIS_TYPE":0,"CLASSIFICATION_TYPE":"U","NORAD_CAT_ID":49019,"ELEMENT_SET_NO":999,"REV_AT_EPOCH":24025,"BSTAR":0.00016183554,"MEAN_MOTION_DOT":1.48e-6,"MEAN_MOTION_DDOT":0},{"OBJECT_NAME":"DELTA 1 DEB","OBJECT_ID":"1972-058BK","EPOCH":"2026-03-09T17:01:48.361728","MEAN_MOTION":13.78161553,"ECCENTRICITY":0.03918545,"INCLINATION":97.7934,"RA_OF_ASC_NODE":133.0223,"ARG_OF_PERICENTER":277.6187,"MEAN_ANOMALY":78.0638,"EPHEMERIS_TYPE":0,"CLASSIFICATION_TYPE":"U","NORAD_CAT_ID":7893,"ELEMENT_SET_NO":999,"REV_AT_EPOCH":51815,"BSTAR":0.00030418002,"MEAN_MOTION_DOT":5.05e-6,"MEAN_MOTION_DDOT":0}]
